OBJECT_NAME,OBJECT_ID,EPOCH,MEAN_MOTION,ECCENTRICITY,INCLINATION,RA_OF_ASC_NODE,ARG_OF_PERICENTER,MEAN_ANOMALY,EPHEMERIS_TYPE,CLASSIFICATION_TYPE,NORAD_CAT_ID,ELEMENT_SET_NO,REV_AT_EPOCH,BSTAR,MEAN_MOTION_DOT,MEAN_MOTION_DDOT
STARLINK-37537,2026-126A,2026-07-06T19:17:15.116352,15.75215958,.0001053,97.2847,48.7412,65.0087,295.1287,0,U,69420,999,583,.69638E-3,.105144E-2,0
STARLINK-37585,2026-126B,2026-07-06T14:27:34.016256,15.75210253,.0001096,97.2843,48.5569,34.1466,325.9869,0,U,69421,999,580,.30677E-3,.45913E-3,0
STARLINK-37573,2026-126C,2026-07-06T14:47:23.199936,15.75204339,.0001477,97.2844,48.5378,14.9365,345.1944,0,U,69422,999,580,.56868E-3,.85601E-3,0
STARLINK-37820,2026-126D,2026-07-07T01:49:06.356064,15.75282259,.0001569,97.2840,49.1390,63.7456,296.3970,0,U,69423,999,588,.15752E-2,.242578E-2,0
STARLINK-37822,2026-126E,2026-07-06T14:00:37.905120,15.75262950,.0000732,97.2843,48.5834,11.9138,348.2144,0,U,69424,999,580,.69599E-3,.1053E-2,0
STARLINK-37836,2026-126F,2026-07-06T13:33:11.724192,15.75291307,.0001165,97.2846,48.6101,90.0208,270.1191,0,U,69425,999,580,.1195E-2,.182775E-2,0
STARLINK-37850,2026-126G,2026-07-07T01:52:09.268320,15.75268858,.0001542,97.2839,49.1362,66.4269,293.7158,0,U,69426,999,593,.13482E-2,.206614E-2,0
STARLINK-37823,2026-126H,2026-07-06T14:09:47.066112,15.75226330,.0000765,97.2845,48.5737,20.4419,339.6876,0,U,69427,999,580,.91134E-3,.13824E-2,0
STARLINK-37834,2026-126J,2026-07-06T14:21:56.674368,15.75180434,.0002527,97.2840,48.5625,328.4393,31.6720,0,U,69428,999,580,.15907E-3,.23655E-3,0
STARLINK-37857,2026-126K,2026-07-06T21:43:07.063968,15.75262376,.0000842,97.2843,48.9110,56.3017,303.8328,0,U,69429,999,585,.12698E-2,.194244E-2,0
STARLINK-37866,2026-126L,2026-07-07T01:41:59.540928,15.75257959,.0001782,97.2844,49.1461,66.7497,293.3956,0,U,69430,999,593,.12811E-2,.195976E-2,0
STARLINK-37555,2026-126M,2026-07-07T02:00:16.938432,15.75251108,.0001227,97.2837,49.1282,42.4983,317.6377,0,U,69431,999,593,.10556E-2,.160737E-2,0
STARLINK-37870,2026-126N,2026-07-06T13:43:21.592416,15.75293109,.0000749,97.2851,48.6005,72.0947,288.0400,0,U,69432,999,580,.12973E-2,.19883E-2,0
STARLINK-37872,2026-126P,2026-07-06T13:21:30.386016,15.75302301,.0001215,97.2843,48.6214,116.2555,243.8835,0,U,69433,999,580,.13914E-2,.213716E-2,0
STARLINK-37815,2026-126Q,2026-07-06T14:33:09.523008,15.75200661,.0001575,97.2839,48.5515,9.5119,350.6176,0,U,69434,999,580,.76868E-3,.116149E-2,0
STARLINK-37801,2026-126R,2026-07-06T20:18:45.241344,15.75233838,.0000798,97.2847,48.8402,33.5651,326.5665,0,U,69435,999,589,.10382E-2,.157919E-2,0
STARLINK-37800,2026-126S,2026-07-06T14:15:52.806816,15.75216062,.0002084,97.2839,48.5700,355.0893,5.0352,0,U,69436,999,580,.39826E-3,.59761E-3,0
STARLINK-37792,2026-126T,2026-07-07T02:00:03.000384,15.75193421,.000175,97.2844,49.1886,108.1208,31.0855,0,U,69437,999,594,.14101E-3,.20959E-3,0
STARLINK-37783,2026-126U,2026-07-06T13:24:33.513408,15.75211979,.0001519,97.2842,48.6188,359.3329,0.7934,0,U,69438,999,585,.94016E-3,.142602E-2,0
STARLINK-37771,2026-126V,2026-07-06T14:39:15.251616,15.75210105,.0001629,97.2846,48.5457,6.7840,353.3446,0,U,69439,999,580,.37995E-3,.56972E-3,0
STARLINK-37747,2026-126W,2026-07-07T02:06:22.788864,15.75240955,.0000788,97.2840,49.1222,79.4980,280.6374,0,U,69440,999,588,.9541E-3,.144937E-2,0
STARLINK-37629,2026-127A,2026-07-06T12:43:41.932416,15.75344443,.0001223,53.1590,166.2800,164.3871,195.7187,0,U,69443,999,445,.84716E-3,.131869E-2,0
STARLINK-37509,2026-127B,2026-07-06T23:17:10.870080,15.75263929,.0001255,53.1581,164.0440,78.5090,281.6071,0,U,69444,999,452,.83473E-3,.12943E-2,0
STARLINK-37641,2026-127C,2026-07-06T07:43:29.097984,15.75382048,.00012634,53.1572,167.1036,81.5254,278.5909,0,U,69445,999,442,.15575495E-2,.246745E-2,0
STARLINK-37522,2026-127D,2026-07-06T12:37:10.257888,15.75373230,.0000653,53.1592,166.2501,127.0600,233.0480,0,U,69446,999,445,.11002E-2,.172506E-2,0
STARLINK-37640,2026-127E,2026-07-06T08:55:14.164608,15.75377234,.00014475,53.1594,166.6996,109.1662,250.9515,0,U,69447,999,443,.14085757E-2,.222387E-2,0
STARLINK-37572,2026-127F,2026-07-06T10:53:13.333056,15.75398099,.0001414,53.1594,166.5061,40.3711,319.7414,0,U,69448,999,444,.16477E-2,.261718E-2,0
STARLINK-37643,2026-127G,2026-07-07T00:00:02.998944,15.75241969,.0001063,53.1590,163.8437,92.1043,102.6605,0,U,69449,999,583,.34048E-4,.4583E-4,0
STARLINK-37601,2026-127H,2026-07-06T23:10:10.382016,15.75316322,.0001602,53.1588,164.0113,126.5168,233.6000,0,U,69450,999,452,.15091E-2,.238111E-2,0
STARLINK-37578,2026-127J,2026-07-06T13:42:23.242176,15.75313293,.0000946,53.1564,165.8110,136.4384,223.6711,0,U,69451,999,446,.79007E-3,.122635E-2,0
